{
    "links": {
        "self": "http://www.neowsapp.com/rest/v1/neo/3774005?api_key=iIulBulltgU6a56xZRHN4H3l9WmuAYTsLGpBGhQ2"
    },
    "id": "3774005",
    "neo_reference_id": "3774005",
    "name": "(2017 HV)",
    "designation": "2017 HV",
    "nasa_jpl_url": "http://ssd.jpl.nasa.gov/sbdb.cgi?sstr=3774005",
    "absolute_magnitude_h": 22.9,
    "estimated_diameter": {
        "kilometers": {
            "estimated_diameter_min": 0.0699125232,
            "estimated_diameter_max": 0.1563291544
        },
        "meters": {
            "estimated_diameter_min": 69.9125232246,
            "estimated_diameter_max": 156.3291544087
        },
        "miles": {
            "estimated_diameter_min": 0.0434416145,
            "estimated_diameter_max": 0.097138403
        },
        "feet": {
            "estimated_diameter_min": 229.3718026961,
            "estimated_diameter_max": 512.8909429502
        }
    },
    "is_potentially_hazardous_asteroid": false,
    "close_approach_data": [
        {
            "close_approach_date": "2016-11-09",
            "close_approach_date_full": "2016-Nov-09 18:52",
            "epoch_date_close_approach": 1478717520000,
            "relative_velocity": {
                "kilometers_per_second": "12.3846911421",
                "kilometers_per_hour": "44584.8881117328",
                "miles_per_hour": "27703.3156158709"
            },
            "miss_distance": {
                "astronomical": "0.365928441",
                "lunar": "142.346163549",
                "kilometers": "54742115.34602067",
                "miles": "34015173.171478446"
            },
            "orbiting_body": "Earth"
        },
        {
            "close_approach_date": "2017-04-08",
            "close_approach_date_full": "2017-Apr-08 11:12",
            "epoch_date_close_approach": 1491649920000,
            "relative_velocity": {
                "kilometers_per_second": "13.9485655155",
                "kilometers_per_hour": "50214.8358559627",
                "miles_per_hour": "31201.5462017231"
            },
            "miss_distance": {
                "astronomical": "0.1412092921",
                "lunar": "54.9304146269",
                "kilometers": "21124609.322367827",
                "miles": "13126223.5618449326"
            },
            "orbiting_body": "Earth"
        }
    ],
    "orbital_data": {
        "orbit_id": "2",
        "orbit_determination_date": "2017-05-05 06:19:22",
        "first_observation_date": "2017-04-17",
        "last_observation_date": "2017-05-03",
        "data_arc_in_days": 16,
        "observations_used": 23,
        "orbit_uncertainty": "8",
        "minimum_orbit_intersection": ".0796618",
        "jupiter_tisserand_invariant": "5.002",
        "epoch_osculation": "2457862.5",
        "eccentricity": ".1892112107922009",
        "semi_major_axis": "1.264361852346006",
        "inclination": "23.70716647141784",
        "ascending_node_longitude": "198.7472042209941",
        "orbital_period": "519.2846713777674",
        "perihelion_distance": "1.025130415384148",
        "perihelion_argument": "311.142765715608",
        "aphelion_distance": "1.503593289307863",
        "perihelion_time": "2457810.436211318888",
        "mean_anomaly": "36.09381319781969",
        "mean_motion": ".69326136480179",
        "equinox": "J2000",
        "orbit_class": {
            "orbit_class_type": "AMO",
            "orbit_class_description": "Near-Earth asteroid orbits similar to that of 1221 Amor",
            "orbit_class_range": "1.017 AU < q (perihelion) < 1.3 AU"
        }
    },
    "is_sentry_object": false
}